ORBCOMM FM20            
1 25416U 98046D   24259.43834467  .00004020  00000+0  14236-2 0  9999
2 25416  44.9946  41.2101 0001268 216.9475 143.1285 14.35827099364797
ORBCOMM FM16            
1 25417U 98046E   24259.09296335  .00005386  00000+0  18453-2 0  9999
2 25417  44.9939  37.5609 0002728 329.7558  30.3132 14.37024812364879
ORBCOMM FM15            
1 25418U 98046F   24259.49252528  .00004703  00000+0  16276-2 0  9993
2 25418  44.9975  40.0470 0002272 333.4347  26.6384 14.36719285364889
ORBCOMM FM14            
1 25419U 98046G   24259.42998611  .00004990  00000+0  17160-2 0  9998
2 25419  44.9965  39.2519 0001724 297.4456  62.6217 14.36950800364889
ORBCOMM FM13            
1 25420U 98046H   24258.84949245  .00004209  00000+0  14804-2 0  9999
2 25420  44.9973  47.6470 0003853 317.2560  42.7987 14.36083935363632
ORBCOMM FM21            
1 25475U 98053A   24259.36583085  .00003072  00000+0  10971-2 0  9999
2 25475  45.0071 129.7417 0000633 325.3935  34.6871 14.35936512358054
ORBCOMM FM22            
1 25476U 98053B   24258.94393906  .00003515  00000+0  12320-2 0  9996
2 25476  45.0068 128.4466 0002021 284.3840  75.6784 14.36589039357666
ORBCOMM FM23            
1 25477U 98053C   24258.97248699  .00003297  00000+0  11727-2 0  9995
2 25477  45.0082 133.9812 0001456 291.3346  68.7346 14.35983564357813
